[Satellite]
VERSION=1.1
NAME=IRIDIUM 121
NICKNAME=IRIDIUM 121
TLE1=1 42812U 17039K   22342.49665462  .00000071  00000+0  18341-4 0  9990
TLE2=2 42812  86.3987 171.3964 0001868  84.5132 275.6277 14.34216460285403
STATUS=0
